[{"OBJECT_NAME":"STARLINK-30084","OBJECT_ID":"2023-079C","EPOCH":"2026-03-09T22:00:01.999584","MEAN_MOTION":15.23505566,"ECCENTRICITY":0.00011469,"INCLINATION":43.0023,"RA_OF_ASC_NODE":104.9996,"ARG_OF_PERICENTER":274.1304,"MEAN_ANOMALY":27.2312,"EPHEMERIS_TYPE":0,"CLASSIFICATION_TYPE":"U","NORAD_CAT_ID":56825,"ELEMENT_SET_NO":999,"REV_AT_EPOCH":578,"BSTAR":0.031721463,"MEAN_MOTION_DOT":0.00827712,"MEAN_MOTION_DDOT":0},{"OBJECT_NAME":"GLOBAL-33","OBJECT_ID":"2025-267A","EPOCH":"2026-03-09T21:54:41.233536","MEAN_MOTION":15.34150159,"ECCENTRICITY":0.00080919,"INCLINATION":42.0191,"RA_OF_ASC_NODE":272.8342,"ARG_OF_PERICENTER":299.7504,"MEAN_ANOMALY":60.2529,"EPHEMERIS_TYPE":0,"CLASSIFICATION_TYPE":"U","NORAD_CAT_ID":66554,"ELEMENT_SET_NO":999,"REV_AT_EPOCH":1678,"BSTAR":0.00044586475,"MEAN_MOTION_DOT":0.00014847,"MEAN_MOTION_DDOT":0}]
